{"type": "FeatureCollection", "features": [{"type": "Feature", "properties": {"id": "desc-p12"}, "geometry": {"type": "MultiLineString", "coordinates": [[[-81.1240712093311, 32.3607080333108], [-81.1237092673233, 32.3610181098709], [-81.1236711958232, 32.3613655121212], [-81.123647401248, 32.3658722112928], [-81.1236140890223, 32.3665003889309], [-81.1199830312703, 32.3682421541313], [-81.1163900450183, 32.3682135997297], [-81.1135537267981, 32.3682088416735], [-81.1113217933044, 32.3662672007693], [-81.1023226711124, 32.3670904950145], [-81.0985631228337, 32.3674569321147], [-81.0949511012808, 32.365458185012], [-81.0871655051213, 32.3611275659446], [-81.0798510420906, 32.3570682048266], [-81.0754252439084, 32.3545983247997], [-81.0705759026461, 32.3523711493224], [-81.0577601262728, 32.3464748452917], [-81.053734078392, 32.3446474192782], [-81.0527299451606, 32.3433625102597], [-81.048332700828, 32.3377755347261], [-81.0399332040882, 32.334801209188], [-81.0337745108071, 32.3326637322316], [-81.0323272323579, 32.3320520321898], [-81.0308594417776, 32.335007713985]], [[-81.1241523, 32.36069929999998], [-81.1240712093311, 32.36070803331081]], [[-81.0308594417776, 32.33500771398499], [-81.030859, 32.335008]]]}}, {"type": "Feature", "properties": {"id": "desc-p48"}, "geometry": {"type": "MultiLineString", "coordinates": [[[-82.2001375742272, 33.7366754936481], [-82.2014314060528, 33.7362680111439]], [[-82.2001375742272, 33.7366754936481], [-82.2008543867047, 33.7379306597944], [-82.2021928342573, 33.7403696069404], [-82.2031118997261, 33.7420203579481], [-82.2019548867082, 33.742945374025], [-82.2002089579529, 33.7442659750648], [-82.1982964662726, 33.7457561118573], [-82.1982994405945, 33.7466067697456], [-82.198347029745, 33.7494383276784], [-82.1983559527107, 33.7520497873402], [-82.198376772964, 33.7546433991603], [-82.1983737986421, 33.7571567049096], [-82.1984124648269, 33.7598752386579], [-82.1983975932174, 33.7618739862789], [-82.198418414369, 33.764387292126], [-82.1984362603004, 33.7669273670798], [-82.1984541053336, 33.7693603652956], [-82.1984600539774, 33.7719718236719], [-82.1994207617496, 33.7743483110499], [-82.2002654700691, 33.7763589549218], [-82.2013629966489, 33.7791221037615], [-82.2017437098529, 33.7798984028488], [-82.203147591589, 33.7812517217877], [-82.2061695080351, 33.7840951780713], [-82.2086441465556, 33.7864329977094], [-82.2110622738582, 33.7887529728787], [-82.2136231686123, 33.7911354076541], [-82.2153215100137, 33.7927147747442], [-82.2156338138138, 33.7928099537909], [-82.2186676266492, 33.7937617376919], [-82.2215081076625, 33.7946153703446], [-82.2244407935531, 33.795516589956], [-82.2275221964373, 33.7964326826468], [-82.2303775490601, 33.7973130838808], [-82.2333875673202, 33.7968461140505], [-82.2350204718431, 33.7966230398324], [-82.2359752309714, 33.798261893669], [-82.2375724436314, 33.8009774532783], [-82.2381345922683, 33.8019322121145], [-82.2386342792467, 33.8028215359652], [-82.2393600137917, 33.8035889120531], [-82.2413974278904, 33.805801811237], [-82.2439464262552, 33.8085857798078], [-82.246736343796, 33.8116582589881], [-82.2495232870149, 33.8146653028565], [-82.2515190597086, 33.8168395350854], [-82.2541483647648, 33.8197276061065], [-82.2567271063487, 33.8225234733434], [-82.2587883141243, 33.8247750380627], [-82.2611499293107, 33.827353778825], [-82.2636334907969, 33.8300395951604], [-82.2659296709014, 33.8325647983474], [-82.267580422254, 33.834349393948], [-82.2676280114045, 33.8345546232955], [-82.2684548737926, 33.8372493620794], [-82.2692519929617, 33.8400511783382], [-82.2700461378088, 33.8427862487914]], [[-82.2700461378088, 33.8427862487914], [-82.2713905340051, 33.8472596359451], [-82.2729669273101, 33.852613422908], [-82.2742280406965, 33.8569499907425], [-82.2755129495564, 33.8612627640935], [-82.2771428806556, 33.8669437267306], [-82.2786895307416, 33.8721309519383], [-82.2799149531633, 33.8763425980755], [-82.2790464502686, 33.876907720073], [-82.2794271643708, 33.8772348956297]], [[-82.2812228750642, 33.8784309067465], [-82.2804728887015, 33.8771839976926], [-82.2799767707296, 33.8768056627428]], [[-82.2922126738073, 33.9062529787379], [-82.2914303067718, 33.9038422893541], [-82.2904237948016, 33.9007977692732], [-82.2893887289818, 33.8976782953572], [-82.2883072642792, 33.8943125480943], [-82.2872829063776, 33.8910967062896], [-82.2863299322017, 33.8882627680934], [-82.2859123368672, 33.8868850598017], [-82.2848344411712, 33.8850148042307], [-82.2832461505786, 33.8820702208156], [-82.2812228750642, 33.8784309067465]], [[-82.2015043, 33.73628840000001], [-82.2014314060528, 33.7362680111439]], [[-82.29292651196302, 33.9065765853531], [-82.2928038, 33.90653609999999]]]}}, {"type": "Feature", "properties": {"id": "sertp-p101-6e4282"}, "geometry": {"type": "MultiLineString", "coordinates": [[[-83.3546171912662, 31.7816754010412], [-83.3514760001099, 31.7790960002218], [-83.3465560000623, 31.7756210000263], [-83.3394529995512, 31.7699909996845], [-83.3386729995766, 31.7695139999238], [-83.3321630003407, 31.7646859997934], [-83.3302429996429, 31.7631300001792], [-83.3297380000279, 31.7627420003664], [-83.3249619999203, 31.7591269999676], [-83.3227109996847, 31.7575220001203], [-83.3130580000856, 31.7501619997819], [-83.3114040004249, 31.7488960000859], [-83.3105819997192, 31.7482749999422], [-83.3046149997332, 31.743726000191], [-83.302424999597, 31.7420820003346], [-83.2996419999822, 31.734174000133], [-83.2990460001305, 31.7323659999647], [-83.2977129999619, 31.7321050001242], [-83.2949110000805, 31.7315800001588], [-83.2924618198151, 31.7311500720976], [-83.2924202260209, 31.7298638669822], [-83.2924261683765, 31.7295808492626], [-83.2925279996004, 31.7294063111651]], [[-83.4569194495576, 31.9234472501564], [-83.4577095528843, 31.9230026851227], [-83.4572940003187, 31.9202199999901], [-83.4571860003636, 31.9188929996588], [-83.451088999783, 31.9108090002869], [-83.4506889997499, 31.9100410000541], [-83.4498319997824, 31.9091500003572], [-83.4436549997341, 31.9026419998706], [-83.4432019999976, 31.9021139998208], [-83.4409800000743, 31.8993900002173], [-83.4388860001976, 31.8968599999583], [-83.4351250002414, 31.8922159996552], [-83.4346680003069, 31.891850000179], [-83.4332580001454, 31.8910319996246], [-83.4298970002222, 31.8890819998059], [-83.4256840003544, 31.8867140000346], [-83.4252009995823, 31.8861649998897], [-83.4250750000839, 31.8860170001464], [-83.4241710002607, 31.884437000043], [-83.4236969997094, 31.8836089999578], [-83.4233800004154, 31.8830560003319], [-83.4213469997397, 31.8796709998873], [-83.4204780000765, 31.8781239998464], [-83.419945999799, 31.8772699998478], [-83.4177690000815, 31.8735509996194], [-83.4112179999395, 31.8623599997811], [-83.409438999707, 31.8594270002221], [-83.4048729996618, 31.8515000001456], [-83.4019040002741, 31.8464709997795], [-83.398827999858, 31.8412370003714], [-83.3978529998897, 31.8395909997616], [-83.3956650003016, 31.8358950002616], [-83.3953749998734, 31.8351529997334], [-83.3942969999729, 31.8309779998382], [-83.3942309998506, 31.8307239998282], [-83.394115000398, 31.8302729996806], [-83.3931489997522, 31.8262879997631], [-83.3917069998036, 31.8208899997386], [-83.3880708872314, 31.8066059519751], [-83.3865022005732, 31.8009703196845], [-83.3859320003366, 31.798110000345], [-83.3853359995866, 31.7961519998554], [-83.3849170001852, 31.7949969998373], [-83.374780999814, 31.7912840000716], [-83.36113600028, 31.7863660002393], [-83.3604700001082, 31.7860090002574], [-83.3566249995881, 31.7832920003744], [-83.3556360002743, 31.7825119996555], [-83.3546171912662, 31.7816754010412]], [[-83.5627979998097, 31.9865780000301], [-83.5631559308398, 31.9861167532152], [-83.5628053534187, 31.9850382168283], [-83.5605652218997, 31.9852599727666], [-83.5595372572622, 31.9853809309486], [-83.5580279905668, 31.9851642147594], [-83.5568455336668, 31.9850986957044], [-83.5558056852164, 31.9850130179832], [-83.5531258472305, 31.9845291838819], [-83.5519077379934, 31.9845493441315], [-83.5509094833373, 31.9839243880481], [-83.5479444275537, 31.982104937764], [-83.545603283176, 31.9800586429407], [-83.5409566440627, 31.9778056501375], [-83.5338381368331, 31.9748570182767], [-83.5275336820157, 31.9722056880041], [-83.5263096313214, 31.972004062762], [-83.5235763139317, 31.9714395106423], [-83.5216570507507, 31.9710513778076], [-83.5205102461877, 31.9707035699192], [-83.5172956276384, 31.9707438957267], [-83.5161607068882, 31.9709707272069], [-83.5144731812028, 31.970199499259], [-83.5127559446377, 31.9694887517094], [-83.5081033640671, 31.966791899915], [-83.5048174417421, 31.9642915686248], [-83.5023931088775, 31.9629304738436], [-83.4987090729816, 31.9618365419928], [-83.4931235991749, 31.9602838407013], [-83.4894989832417, 31.9594116957153], [-83.4833609053981, 31.956709506158], [-83.4803245458389, 31.9558373272287], [-83.4792252774257, 31.9557768290713], [-83.4778110830301, 31.9553382152855], [-83.4758145728196, 31.9546424776209], [-83.4746024068364, 31.9541030268488], [-83.4739547287031, 31.9533316556965], [-83.4735447322175, 31.9521871930403], [-83.4738061787962, 31.9504024062957], [-83.4669788290249, 31.9507502910816], [-83.4659152120504, 31.9497217577428], [-83.4619875548461, 31.9496612547954], [-83.462038570171, 31.9459666273612], [-83.4613649998963, 31.9424340002602], [-83.4605459995636, 31.9383089998671], [-83.46052999967, 31.938211999845], [-83.4577676181876, 31.9231934897008], [-83.4569194495576, 31.9234472501564]], [[-83.2924114, 31.729334600000005], [-83.2925279996004, 31.7294063111651]]]}}, {"type": "Feature", "properties": {"id": "sertp-p127-7d93f6"}, "geometry": {"type": "MultiLineString", "coordinates": [[[-82.399257000143, 31.223283000349], [-82.3989877786456, 31.223026787658], [-82.3979318925724, 31.2226639201489], [-82.3969503654452, 31.2248173320524], [-82.3963941663505, 31.22465374381]], [[-82.3792915566779, 31.2458992119267], [-82.379315325202, 31.245053372321], [-82.3867277953284, 31.2440108876194], [-82.3900895803791, 31.2365263140764], [-82.3901268065645, 31.233111964198], [-82.3923872948061, 31.2321720768458], [-82.3933715016078, 31.2292856127285], [-82.3952783401901, 31.224284163962], [-82.3963941663505, 31.22465374381]], [[-82.3792915566779, 31.2458992119267], [-82.3793307744282, 31.2484265293463], [-82.3804395497121, 31.2512732982092], [-82.3826141140967, 31.2563500580706], [-82.3834792680721, 31.2583249620042], [-82.3846518839283, 31.2610872348064], [-82.3867107291347, 31.2658349797572], [-82.3882366326291, 31.2694125796693], [-82.3943259876483, 31.2837764652872], [-82.3963176999569, 31.2884414999267], [-82.3971110237439, 31.2898331811217], [-82.3984479720082, 31.2930899839374], [-82.4012207999991, 31.2930623001357], [-82.4033773001617, 31.2930807002233], [-82.4032966386357, 31.2954571138948], [-82.4032915002723, 31.299983900168], [-82.4032486003276, 31.3045766997148], [-82.4049865996539, 31.3085092003766], [-82.4063276999314, 31.3116532000906], [-82.4074006000961, 31.3141647998319], [-82.4088811997541, 31.3176936001237], [-82.4090635999776, 31.3181060003619], [-82.4096858998058, 31.3195266999058], [-82.4101043000309, 31.3208739997025], [-82.4108310002648, 31.3217520001999], [-82.4111779996961, 31.3223009999761], [-82.4115848996889, 31.322899499922], [-82.4116439998514, 31.3233190002132], [-82.4116480000494, 31.3235679996895], [-82.4119066995798, 31.3270053996315], [-82.4120355000253, 31.3286824999483], [-82.4121212999147, 31.3292231997128], [-82.4122392999155, 31.3301029999974], [-82.4125612004178, 31.3326140999588], [-82.4145031002455, 31.3367744997011], [-82.414588900135, 31.3386072003224], [-82.4150609998511, 31.3409531001059], [-82.4153614000753, 31.342565800254], [-82.4161016999044, 31.3466982998563], [-82.4170243999568, 31.3519760001757], [-82.4179255997313, 31.3568685000818], [-82.4190413998407, 31.3630067003445], [-82.4202429998395, 31.3680819000972], [-82.4210154997798, 31.3714346001656], [-82.4221312998892, 31.376234600066], [-82.4228179999401, 31.3788542998363], [-82.424834999824, 31.3818769003371], [-82.4261867999349, 31.3840935001606], [-82.4279893000952, 31.3870059999027], [-82.4309503996983, 31.3920065997348], [-82.4356067001925, 31.3995161997616], [-82.4361216998533, 31.4003770000467], [-82.4370228996278, 31.4015492003313], [-82.4376881002991, 31.4057249000101], [-82.4387395998987, 31.4106513003235], [-82.4390985002109, 31.4129530000193], [-82.4384547001047, 31.4165329998135], [-82.4384428558176, 31.4169098807134], [-82.4382402003811, 31.4178790001265], [-82.4370259997138, 31.4227790000822], [-82.441207200119, 31.4313794001818], [-82.4430955001687, 31.4362129001178], [-82.444168299722, 31.4379705000275], [-82.4464858004414, 31.4419065999157], [-82.447859099932, 31.4441765999754], [-82.4495756995916, 31.4471238997205], [-82.4513138004275, 31.4510779000102], [-82.4530304000871, 31.4567523997853], [-82.4536040004471, 31.4592250001666], [-82.4538680000378, 31.4604209999134], [-82.4539530004266, 31.461163600018], [-82.4548542999141, 31.4653183001885], [-82.4559485997454, 31.4707174000829], [-82.4569141997426, 31.4757501996766], [-82.4573003998563, 31.4773972001403], [-82.4588239003574, 31.4849364998198], [-82.4600685000139, 31.4909931997566], [-82.4609052995656, 31.494945299919], [-82.4619997000083, 31.500232900235], [-82.4620639996197, 31.5015868003552], [-82.4627077997259, 31.5039102997159], [-82.4638235998353, 31.5073495999224], [-82.4643386003944, 31.5088680003276], [-82.4649822998893, 31.5112462001264], [-82.467272169329, 31.5186258109936], [-82.4695742001609, 31.5258432996747], [-82.4703322956157, 31.5283508196874], [-82.4728786996459, 31.5319156002162], [-82.4763549004194, 31.5376400003569], [-82.4774377305612, 31.5396761398182], [-82.4777086858071, 31.5415478608817], [-82.478049999801, 31.5421570997124]], [[-82.4721862063597, 31.5663696079696], [-82.4726461078525, 31.5642425290179], [-82.4733092343138, 31.5613687839833], [-82.4737941008867, 31.5590721552913], [-82.4740222729689, 31.5578448321614], [-82.4742647067045, 31.5567390128071], [-82.4745641825623, 31.5555420402939], [-82.4748137471247, 31.5543146707212], [-82.4752558314322, 31.5525282736879], [-82.4756194811373, 31.5502192738337], [-82.4763467814459, 31.5476428491911], [-82.4768744302842, 31.545716559936], [-82.4773634003613, 31.5438120997341], [-82.4775565004182, 31.5432269003705], [-82.478049999801, 31.5421570997124]], [[-82.4330243797206, 31.6627313982229], [-82.433614449793, 31.6610548576365], [-82.4342017350881, 31.6596137546455], [-82.4360743280951, 31.6548688541706], [-82.4375503193957, 31.6511845546736], [-82.4382348374389, 31.6496124619285], [-82.4402456066079, 31.6445318088472], [-82.4413365566215, 31.6418669351973], [-82.4423562028595, 31.6393294668129], [-82.4434542836999, 31.6364641081961], [-82.4448304488162, 31.6335500937404], [-82.4461067886467, 31.6306299179974], [-82.4475257369267, 31.6282074980609], [-82.4490088590541, 31.6251353662031], [-82.4505850942555, 31.6222452912379], [-82.4508556299882, 31.6216077527176], [-82.4523218080926, 31.6187469069045], [-82.4544783882054, 31.6146078302879], [-82.45614430312, 31.6113002611406], [-82.4574910286478, 31.6084751996666], [-82.4597329675771, 31.6041134337086], [-82.4610520905713, 31.6018360767626], [-82.4625637342089, 31.5992428583262], [-82.4636618141509, 31.597481615254], [-82.4652376307375, 31.5948153931651], [-82.4661503208628, 31.5932241259049], [-82.4666423182624, 31.5909586501413], [-82.4667635351302, 31.5905213402125], [-82.4671271848353, 31.5888328178525], [-82.4676334420918, 31.5864153853069], [-82.4682537862877, 31.5837063267544], [-82.4690595211986, 31.5800921030272], [-82.4695942999654, 31.5778020088904], [-82.4699080365783, 31.576410915861], [-82.4703073386204, 31.574649241176], [-82.4709134229595, 31.5717393669868], [-82.4715266363286, 31.5689448296846], [-82.4721862063597, 31.5663696079696]], [[-82.4330243797206, 31.6627313982229], [-82.4309334224377, 31.6682000103027], [-82.4291745920783, 31.6721890796875], [-82.4274632978688, 31.6756682499869], [-82.4258185553471, 31.6789854778317], [-82.4254002377671, 31.6799158977784], [-82.4245826199415, 31.6814935467356], [-82.4203233990574, 31.6898424998617], [-82.4173191282184, 31.6957882448363], [-82.4133070940561, 31.7039984088452], [-82.4124514469513, 31.7056484432753], [-82.4113391062541, 31.7078888833548], [-82.4064333957078, 31.7174162162757], [-82.40526401199, 31.7197857651584], [-82.4019269881018, 31.7263441679754], [-82.3998258996191, 31.7288024389172], [-82.3971163507535, 31.7319883896665], [-82.3960990805595, 31.7332821459202], [-82.3943877872483, 31.7350044309903], [-82.3911838649391, 31.7390876540653], [-82.3907085052368, 31.7396293752804], [-82.3881130433106, 31.7427664440412], [-82.382741480831, 31.7491615298527], [-82.3798132667538, 31.7526458980077], [-82.3788055043288, 31.7539070288132], [-82.377788235033, 31.755030714219], [-82.3767234295874, 31.7563807363442], [-82.3761339838441, 31.7570355303261], [-82.3729966123244, 31.7607944412969], [-82.3702775556898, 31.7667275522344], [-82.368090901778, 31.7713509120259], [-82.3672352546733, 31.7732664670962], [-82.3666077814473, 31.7746404700799], [-82.3661324208468, 31.7756830812701], [-82.3655714966137, 31.776943898152], [-82.3651056446804, 31.7781077140416], [-82.3648394442173, 31.7786330427898], [-82.364202462324, 31.7799827198216], [-82.3635940019411, 31.7812838869062], [-82.3632897721987, 31.7819789131765], [-82.3624056026854, 31.7839508190123], [-82.3615564306372, 31.7859772556427], [-82.3613594309937, 31.7863852570676], [-82.3613064312903, 31.7864972579823], [-82.3612524308636, 31.786608257705], [-82.3585465336496, 31.7922432646946], [-82.3470268663311, 31.7902165828653], [-82.3340578724046, 31.7886064406696], [-82.333601527342, 31.7887852347535], [-82.3334517889639, 31.7890458487864], [-82.3337199998566, 31.7892430003064]], [[-82.3337199998566, 31.7892430003064], [-82.3340415113883, 31.7897376212295], [-82.3344388811543, 31.7897495189641], [-82.3346173395703, 31.788933363806], [-82.3450305609365, 31.7901566080944], [-82.3458149042656, 31.7901566080944], [-82.356272608408, 31.791959021305], [-82.3606518567905, 31.7927670967857], [-82.3636413916656, 31.7932306721538], [-82.3713893924321, 31.7946436782102], [-82.3718993920701, 31.7948126777071], [-82.3722113922396, 31.7947926782075], [-82.3740773916124, 31.7953876801779], [-82.3748393920437, 31.7956446810031], [-82.3819183922654, 31.7981826896432], [-82.3862553919818, 31.7997416963], [-82.3892513920319, 31.8007076992921], [-82.4018523920006, 31.804720714124], [-82.4343113924349, 31.816155754765], [-82.4357643922541, 31.8166697569597], [-82.4446017386432, 31.8197682197761], [-82.445399999571, 31.8197660000758]], [[-82.445399999571, 31.819766000075802], [-82.445406, 31.819717500000003]]]}}, {"type": "Feature", "properties": {"id": "sertp-p142-52c2b0"}, "geometry": {"type": "MultiLineString", "coordinates": [[[-83.3353509002985, 32.4266901002673], [-83.3355869003, 32.4373573999129], [-83.3356512996244, 32.4404450998899], [-83.3356941995691, 32.4426272000407], [-83.3357156998472, 32.4443294001242], [-83.3357801000699, 32.4488291998246], [-83.3358480001289, 32.4524710002716], [-83.335887299626, 32.4530663001931], [-83.3358765997926, 32.4538900999678], [-83.3359080004034, 32.4541129999079], [-83.3359419998403, 32.4547620002303], [-83.335930300182, 32.4549675001568], [-83.3361200001155, 32.4605379997595], [-83.3361539995524, 32.4613200003766], [-83.3361379996589, 32.4616070003742], [-83.3361069996967, 32.4622649996529], [-83.3363119997361, 32.4659439998049], [-83.3363340003758, 32.4668690000903], [-83.3365209999735, 32.4727969997032], [-83.3366060003623, 32.474733000229], [-83.3373050001461, 32.4753370000333], [-83.3388690002935, 32.4766609996544], [-83.3451142732016, 32.4822655283682], [-83.3479367187389, 32.4846463933348], [-83.350551196203, 32.4869018921934], [-83.3610685242258, 32.4960987277688], [-83.3660895092844, 32.5006341509628], [-83.3675140001697, 32.5054599996244], [-83.3680520002951, 32.5071819998117], [-83.3685810001996, 32.5088130003574], [-83.3690620004235, 32.5102640000268], [-83.3690849999897, 32.5104940002273], [-83.3699930000109, 32.5141240003222], [-83.3700890002704, 32.5146090001291], [-83.3739986929657, 32.5263481687761], [-83.3800309995745, 32.545151000321], [-83.3855497582, 32.5492392469416], [-83.4073440000054, 32.5646960000157], [-83.4115769505573, 32.5614984193403], [-83.4199555506871, 32.555168866842], [-83.4349541361828, 32.5490313423507], [-83.4563860002975, 32.5404249999412], [-83.472085611278, 32.5408610900296], [-83.4984537259637, 32.5416923283339], [-83.5168951371252, 32.5422910311534], [-83.5337239492824, 32.5428709080354], [-83.5364100000168, 32.5428300002971], [-83.5394526001724, 32.5431214997096], [-83.5409929997805, 32.5431499002824], [-83.5436328995672, 32.5432242003306], [-83.5461768997058, 32.5433095003693], [-83.5487934998889, 32.5433925997128], [-83.5512492998396, 32.5434624998502], [-83.5542843002478, 32.5435680996458], [-83.5572819001975, 32.5436392998681], [-83.5594238997548, 32.5446558000724], [-83.5614466003475, 32.5455979998328], [-83.5631713998289, 32.5463957999913], [-83.5647419998987, 32.5471345000446], [-83.5677812996438, 32.5485553999786], [-83.5697340996293, 32.5494647002548], [-83.5731337998732, 32.5510385998504], [-83.5761520997019, 32.5524478999376], [-83.5781723002831, 32.5533922001121], [-83.5800938999821, 32.5542883000405], [-83.5827960000174, 32.5555386002416], [-83.5852648003869, 32.5566948998864], [-83.5880759002021, 32.5579887999369], [-83.5907470002752, 32.5592368998416], [-83.593407599941, 32.5602903996854], [-83.5957130003536, 32.5613635002019], [-83.5979845998569, 32.5624399002187], [-83.5992627632674, 32.5626453532899], [-83.599645831854, 32.5629521431134], [-83.5995897365561, 32.5650738592978]], [[-83.3353509002985, 32.4266901002673], [-83.3352542999644, 32.4249966003165], [-83.335168500075, 32.4226148000372], [-83.3351471004083, 32.4211113996761], [-83.3351471004083, 32.4200970997345], [-83.3351578002416, 32.4176517999779], [-83.3302547001995, 32.4135942002662], [-83.3273793995875, 32.4110490997531], [-83.3271993295939, 32.410899799665]], [[-83.3271993295939, 32.410899799665], [-83.3255769003256, 32.4095545997923], [-83.3229806002712, 32.4073173000678], [-83.319086000171, 32.4020997997236], [-83.3148909998465, 32.3961754002577], [-83.314386799732, 32.3954777999317], [-83.3130777998528, 32.3936207002023], [-83.3127559999619, 32.3931767996784], [-83.312541399627, 32.3928597002078], [-83.312144399967, 32.3922979997165], [-83.3113934003046, 32.3913105000177], [-83.3104921996318, 32.3898066001571], [-83.3100416001937, 32.3891995997635], [-83.3076168999181, 32.3854941000841], [-83.3070803999793, 32.3846242997646], [-83.3053638003198, 32.3819787001294], [-83.3009863997718, 32.3752919002105], [-83.3003320004435, 32.3743131997518], [-83.2988729001652, 32.3723379002958], [-83.2954289004013, 32.3675080002553], [-83.2925857999007, 32.3639103997482], [-83.29064380036, 32.3615723000226], [-83.2874359003107, 32.3575665003393], [-83.2868404205836, 32.3569317718375], [-83.2848863000747, 32.3544971998776], [-83.2833735003053, 32.352630199961], [-83.2820539003058, 32.3510169000092], [-83.2773653997001, 32.345261300362], [-83.2765205611249, 32.3442669017142], [-83.2762500002394, 32.3443060000452]], [[-83.2762500002394, 32.3443060000452], [-83.2762595403477, 32.3439596721978], [-83.2754556002707, 32.3430134002812], [-83.2741360002712, 32.3412639996842], [-83.2703808995514, 32.3367678000956], [-83.2652954001841, 32.3303949002017], [-83.2639436000732, 32.3287994002122], [-83.2622270004136, 32.3264603997738], [-83.2616046996871, 32.325435899733], [-83.2608859001361, 32.3245293001196], [-83.2601563001404, 32.3234775996431], [-83.2593194996903, 32.3223804996941], [-83.2588045000295, 32.3217459001173], [-83.2576780000868, 32.3203950003229], [-83.25605790015, 32.3184275003111], [-83.2529573002682, 32.3147734997496], [-83.2521848003278, 32.3138395997676], [-83.251283599655, 32.3127515003539], [-83.2501141000546, 32.3114095003148], [-83.2480383009438, 32.3087800913282], [-83.2434178072968, 32.3035851300901], [-83.2416704996275, 32.3017611002078], [-83.2385376996343, 32.2981518002693], [-83.2370786002543, 32.2961656999924], [-83.2364133995831, 32.2950682996403], [-83.2350294002591, 32.2929370002135], [-83.2339780003725, 32.291431500189], [-83.2301837995817, 32.285599345302], [-83.227189034715, 32.2809576616817], [-83.2197734267733, 32.2701060477979], [-83.2184186532388, 32.2680802688584], [-83.2162189998065, 32.2647550000332], [-83.2150050003619, 32.2629850002778], [-83.2091229998664, 32.2543949997226], [-83.2062080000071, 32.2501350000211], [-83.2043269996674, 32.2473910001536], [-83.2029559998639, 32.2453869998011], [-83.2013275581714, 32.2429369827915]], [[-83.2013275581714, 32.2429369827915], [-83.2010700003997, 32.2425540003031], [-83.1998359999652, 32.2407010001713], [-83.1963110000106, 32.2354079997836], [-83.1931810000661, 32.230701000245], [-83.1921080001885, 32.2290860003366], [-83.1916780000181, 32.2284399996324], [-83.1908319999212, 32.2271710001839], [-83.1867849997348, 32.2213929999161], [-83.185391000365, 32.2194049998858], [-83.1842359995733, 32.2177540002392], [-83.1833579996894, 32.2176920001872], [-83.1795520004256, 32.2174259996559], [-83.1792949996094, 32.2174050000209], [-83.1773039996648, 32.2172720001926], [-83.170488159109, 32.216612752165], [-83.1666947910564, 32.2162387309963], [-83.1644843686205, 32.2159974259303], [-83.1632864633926, 32.2150442661412], [-83.1615751691831, 32.2137894572341], [-83.1614229999638, 32.2133399999534]], [[-83.1614229999638, 32.213339999953405], [-83.1614216, 32.213299299999974]]]}}, {"type": "Feature", "properties": {"id": "sertp-p142-e60160"}, "geometry": {"type": "MultiLineString", "coordinates": [[[-83.3170530003936, 32.8825889999012], [-83.3170022940891, 32.8830684370966], [-83.3169528642906, 32.8842510779891], [-83.3168335096303, 32.8866630350433], [-83.3166960943413, 32.888289927338], [-83.3166539615578, 32.889322761056], [-83.3167562563125, 32.8909830133607], [-83.3168210167597, 32.8916192650262], [-83.3168070102278, 32.8938871277118], [-83.3095833749572, 32.896247198362], [-83.3003262970397, 32.8991597272811], [-83.2934906279707, 32.9012910287949], [-83.2893127153995, 32.9026116918817], [-83.2855525724361, 32.9060213226303], [-83.2843393356611, 32.9071486131354], [-83.2835698774163, 32.9079280701107], [-83.2811040001648, 32.9102359998346], [-83.2796410002998, 32.9115949999445], [-83.2781990003512, 32.9129369998857], [-83.2742269996095, 32.9166080002653], [-83.26557099972, 32.9246070000242], [-83.2572999997951, 32.9322499998958], [-83.2545180000051, 32.9346810002333], [-83.2516875181393, 32.9369727383399], [-83.2499952376711, 32.9382972568586], [-83.2452223098019, 32.9422872102147], [-83.2360010001041, 32.9496390002433], [-83.2357030001783, 32.9498760002863], [-83.2290619996246, 32.9551720002722], [-83.2236539996803, 32.959483999869], [-83.2224140002964, 32.960453000299], [-83.2215780002453, 32.9611060000309], [-83.2153066124135, 32.9661679000597], [-83.2062098792827, 32.9731784263646], [-83.2022881626373, 32.9762091872255], [-83.195395451446, 32.981553639962], [-83.1906949996539, 32.9870770001278], [-83.1887370002196, 32.9894580000339], [-83.1878939995974, 32.9901220000516], [-83.1859670001252, 32.9914709999513], [-83.1761520001444, 32.9983399997678], [-83.1741006343111, 32.999737980204], [-83.1729540004279, 33.0030279996485], [-83.1725290002805, 33.0042989996651], [-83.1721450001409, 33.0045959998911], [-83.1715049999083, 33.0050910000546], [-83.1681491329587, 33.0079023871652], [-83.1663998103683, 33.0092896237625], [-83.1655061348826, 33.0100868758251], [-83.1624828476074, 33.0123669783745], [-83.160695496636, 33.0137222556767], [-83.1521200118472, 33.0197649448586], [-83.1492488407906, 33.0217737689481], [-83.1449039996801, 33.0216970000417], [-83.1412080000212, 33.0216429997272], [-83.1407140002767, 33.0216360001861], [-83.1403130004188, 33.0216300001486], [-83.1401679997555, 33.0216270001297], [-83.1377261281833, 33.0216143402448], [-83.1297591037774, 33.0216621688107], [-83.1251576238717, 33.0216143402448], [-83.1205379997939, 33.0215020002563], [-83.1192969996867, 33.0214810000914], [-83.1163790003527, 33.0214309999299], [-83.1120919999667, 33.0213579997786], [-83.1105358115691, 33.02137501023]], [[-83.0092070000589, 33.0161180001135], [-83.0086934628554, 33.0167569792419], [-83.0118730003962, 33.0169489998901], [-83.0237022487211, 33.0177724579406], [-83.0321009971644, 33.0182860892232], [-83.03738599439, 33.0186396559899], [-83.044401819691, 33.0191236359542], [-83.053130291166, 33.0193469366681], [-83.0600819731624, 33.0195583660143], [-83.0652325186411, 33.0197368097614], [-83.0710109999782, 33.0198860003185], [-83.0807210219366, 33.0205302171139], [-83.0869577383916, 33.0208331349031], [-83.0968071860687, 33.0213114251399], [-83.1028917872034, 33.0213911386717], [-83.1061432456625, 33.0214230249681], [-83.1105358115691, 33.02137501023]], [[-82.8797469998622, 33.005343000331], [-82.880192999926, 33.0052420000675], [-82.8913924951008, 33.006788520359], [-82.8981726752348, 33.0078489961274], [-82.9042976197089, 33.0086460359708], [-82.9154767931954, 33.0097468267636], [-82.9282453424393, 33.0110530369675], [-82.9376340172576, 33.0119536748022], [-82.9469601199248, 33.0126256598197], [-82.9582719152899, 33.0133467767161], [-82.9752664711086, 33.0145856616971], [-82.9832691119189, 33.0150103761585], [-82.9926449111843, 33.0157420673484], [-83.0028240172144, 33.0165239889471], [-83.0085359998642, 33.0167470002189], [-83.0092070000589, 33.0161180001135]], [[-82.8416030003726, 33.0014030003099], [-82.8489619210267, 33.0019294197822], [-82.8570554174448, 33.0024937562114], [-82.86483965086, 33.0031267589293], [-82.8676609995543, 33.003412000117], [-82.8793789996161, 33.0050960000192], [-82.8797469998622, 33.005343000331]], [[-82.8326591497234, 33.001887480942], [-82.83224083394, 33.0017997753025], [-82.8324269711551, 33.0005751568889], [-82.8416030003726, 33.0014030003099]], [[-83.3169141, 32.88247059999998], [-83.3170530003936, 32.8825889999012]], [[-82.8326591497234, 33.001887480941996], [-82.8327291, 33.00182139999999]]]}}, {"type": "Feature", "properties": {"id": "sertp-p157-fb6ec2"}, "geometry": {"type": "MultiLineString", "coordinates": [[[-81.2094394717286, 32.2487605500316], [-81.2090863709399, 32.2489273136994], [-81.2074131060096, 32.2474156700592], [-81.2016992854067, 32.2430494528144], [-81.2020272827748, 32.2415135876568], [-81.203657766338, 32.2340429627707], [-81.2047606001645, 32.2289482719831], [-81.2058634339911, 32.2238090597043], [-81.2075319450368, 32.216103719986], [-81.2083448098762, 32.2123473302559], [-81.2074986696421, 32.2099019739482], [-81.2072136575587, 32.2091839349418], [-81.2081752582562, 32.2088599652825]], [[-81.2081752582562, 32.2088599652825], [-81.2071339473485, 32.208983116225], [-81.2045466879392, 32.2024649517821], [-81.204095096761, 32.2012341052227], [-81.2036007233175, 32.1999710611303], [-81.2021318619452, 32.1962663001521], [-81.2006439868317, 32.1925452962013], [-81.1987092744245, 32.1876293152644], [-81.1981198277829, 32.1861930913677], [-81.1966557211935, 32.1825481171023], [-81.1947875577792, 32.1771890163142], [-81.192914642277, 32.1718296001271], [-81.1919401552467, 32.1690974639109], [-81.1907327422497, 32.1654920453525]], [[-81.1907327422497, 32.1654920453525], [-81.1902027155708, 32.1640152308731], [-81.1891973309863, 32.1622707888527], [-81.1872661830942, 32.1591540496905], [-81.1841644630132, 32.1538670202227], [-81.1818054915686, 32.1532884958121], [-81.1735342374204, 32.1526797848115], [-81.1653105194221, 32.1520710697458], [-81.1645796528019, 32.1532935267726], [-81.1638250203525, 32.1533891088846], [-81.1610310954272, 32.152564078716], [-81.1574611455724, 32.1523467529208], [-81.1557973884111, 32.1513687789093], [-81.1544473669644, 32.1489056852691], [-81.1537390812955, 32.1476539903099], [-81.1529197135518, 32.1462782538223], [-81.1517966820044, 32.146424172671], [-81.1494121939142, 32.1468601891029], [-81.1470554404102, 32.1472828003623], [-81.1458450000907, 32.1481500000835]], [[-81.2094724, 32.24870119999999], [-81.2094394717286, 32.24876055003156]], [[-81.1458450000907, 32.1481500000835], [-81.1459835, 32.14813529999999]]]}}, {"type": "Feature", "properties": {"id": "sertp-p68-577cfa"}, "geometry": {"type": "MultiLineString", "coordinates": [[[-83.3170530003936, 32.8825889999012], [-83.3170022940891, 32.8830684370966], [-83.3169528642906, 32.8842510779891], [-83.3168335096303, 32.8866630350433], [-83.3166960943413, 32.888289927338], [-83.3166539615578, 32.889322761056], [-83.3167562563125, 32.8909830133607], [-83.3168210167597, 32.8916192650262], [-83.3168070102278, 32.8938871277118], [-83.3095833749572, 32.896247198362], [-83.3003262970397, 32.8991597272811], [-83.2934906279707, 32.9012910287949], [-83.2893127153995, 32.9026116918817], [-83.2855525724361, 32.9060213226303], [-83.2843393356611, 32.9071486131354], [-83.2835698774163, 32.9079280701107], [-83.2811040001648, 32.9102359998346], [-83.2796410002998, 32.9115949999445], [-83.2781990003512, 32.9129369998857], [-83.2742269996095, 32.9166080002653], [-83.26557099972, 32.9246070000242], [-83.2572999997951, 32.9322499998958], [-83.2545180000051, 32.9346810002333], [-83.2516875181393, 32.9369727383399], [-83.2499952376711, 32.9382972568586], [-83.2452223098019, 32.9422872102147], [-83.2360010001041, 32.9496390002433], [-83.2357030001783, 32.9498760002863], [-83.2290619996246, 32.9551720002722], [-83.2236539996803, 32.959483999869], [-83.2224140002964, 32.960453000299], [-83.2215780002453, 32.9611060000309], [-83.2153066124135, 32.9661679000597], [-83.2062098792827, 32.9731784263646], [-83.2022881626373, 32.9762091872255], [-83.195395451446, 32.981553639962], [-83.1906949996539, 32.9870770001278], [-83.1887370002196, 32.9894580000339], [-83.1878939995974, 32.9901220000516], [-83.1859670001252, 32.9914709999513], [-83.1761520001444, 32.9983399997678], [-83.1741006343111, 32.999737980204], [-83.1729540004279, 33.0030279996485], [-83.1725290002805, 33.0042989996651], [-83.1721450001409, 33.0045959998911], [-83.1715049999083, 33.0050910000546], [-83.1681491329587, 33.0079023871652], [-83.1663998103683, 33.0092896237625], [-83.1655061348826, 33.0100868758251], [-83.1624828476074, 33.0123669783745], [-83.160695496636, 33.0137222556767], [-83.1521200118472, 33.0197649448586], [-83.1492488407906, 33.0217737689481], [-83.1449039996801, 33.0216970000417], [-83.1412080000212, 33.0216429997272], [-83.1407140002767, 33.0216360001861], [-83.1403130004188, 33.0216300001486], [-83.1401679997555, 33.0216270001297], [-83.1377261281833, 33.0216143402448], [-83.1297591037774, 33.0216621688107], [-83.1251576238717, 33.0216143402448], [-83.1205379997939, 33.0215020002563], [-83.1192969996867, 33.0214810000914], [-83.1163790003527, 33.0214309999299], [-83.1120919999667, 33.0213579997786], [-83.1105358115691, 33.02137501023]], [[-83.0092070000589, 33.0161180001135], [-83.0086934628554, 33.0167569792419], [-83.0118730003962, 33.0169489998901], [-83.0237022487211, 33.0177724579406], [-83.0321009971644, 33.0182860892232], [-83.03738599439, 33.0186396559899], [-83.044401819691, 33.0191236359542], [-83.053130291166, 33.0193469366681], [-83.0600819731624, 33.0195583660143], [-83.0652325186411, 33.0197368097614], [-83.0710109999782, 33.0198860003185], [-83.0807210219366, 33.0205302171139], [-83.0869577383916, 33.0208331349031], [-83.0968071860687, 33.0213114251399], [-83.1028917872034, 33.0213911386717], [-83.1061432456625, 33.0214230249681], [-83.1105358115691, 33.02137501023]], [[-82.8797469998622, 33.005343000331], [-82.880192999926, 33.0052420000675], [-82.8913924951008, 33.006788520359], [-82.8981726752348, 33.0078489961274], [-82.9042976197089, 33.0086460359708], [-82.9154767931954, 33.0097468267636], [-82.9282453424393, 33.0110530369675], [-82.9376340172576, 33.0119536748022], [-82.9469601199248, 33.0126256598197], [-82.9582719152899, 33.0133467767161], [-82.9752664711086, 33.0145856616971], [-82.9832691119189, 33.0150103761585], [-82.9926449111843, 33.0157420673484], [-83.0028240172144, 33.0165239889471], [-83.0085359998642, 33.0167470002189], [-83.0092070000589, 33.0161180001135]], [[-82.8416030003726, 33.0014030003099], [-82.8489619210267, 33.0019294197822], [-82.8570554174448, 33.0024937562114], [-82.86483965086, 33.0031267589293], [-82.8676609995543, 33.003412000117], [-82.8793789996161, 33.0050960000192], [-82.8797469998622, 33.005343000331]], [[-82.8326591497234, 33.001887480942], [-82.83224083394, 33.0017997753025], [-82.8324269711551, 33.0005751568889], [-82.8416030003726, 33.0014030003099]], [[-83.3169141, 32.88247059999998], [-83.3170530003936, 32.8825889999012]], [[-82.8326591497234, 33.001887480941996], [-82.8327291, 33.00182139999999]]]}}, {"type": "Feature", "properties": {"id": "sertp-p73-0d42c5"}, "geometry": {"type": "MultiLineString", "coordinates": [[[-82.7531386772803, 33.7065157433442], [-82.7533668502608, 33.7059304788297], [-82.7536842439153, 33.7047078192772], [-82.7544886978287, 33.7035419279278], [-82.7612197877273, 33.6934649923552], [-82.7638074316156, 33.6895908507583], [-82.7745678805852, 33.6745418376352], [-82.779974243799, 33.6671779018654], [-82.7811142436237, 33.6655499053708], [-82.7831053369931, 33.6601884748615], [-82.7859765080497, 33.6533195362084], [-82.7874025871565, 33.6498057189651], [-82.7895472439304, 33.6451909498308], [-82.7918612439152, 33.6396109629993], [-82.7941851235715, 33.6344823858152], [-82.7975506689699, 33.6257906502094], [-82.7994901361599, 33.6212307001573], [-82.8014866463704, 33.6167180111781], [-82.8026275076796, 33.6142003039921], [-82.8030838527422, 33.6127276483511], [-82.8031979396817, 33.6102573298102], [-82.8032549827022, 33.6049364056963], [-82.8033690687433, 33.6021807982605], [-82.8035972417238, 33.6004228650989], [-82.8037113277648, 33.5988549482073], [-82.8038254138059, 33.5958615721455], [-82.8040535867864, 33.5903496892533], [-82.8043388018891, 33.5846473696842], [-82.804509931849, 33.5799901973546], [-82.8047381039312, 33.5711028518604], [-82.8051944489939, 33.5645436903481], [-82.8051944489939, 33.5580791007379], [-82.8048209995673, 33.5535069999061], [-82.8072259997887, 33.5491859997575], [-82.8088340003169, 33.5463000002945], [-82.810252999801, 33.5437319997961], [-82.8124389997392, 33.5397880003739], [-82.8140289998258, 33.5369409998683], [-82.8203831350717, 33.5261546859768], [-82.8219708345728, 33.523388637137], [-82.8232543061283, 33.5210980603301], [-82.8233588852987, 33.5199487862701], [-82.8233874059106, 33.51903728103], [-82.8236821287823, 33.5148283852879], [-82.8238057225924, 33.5129894051378], [-82.8232791993431, 33.5043349418917], [-82.8232189906595, 33.5037768200618], [-82.8231999769182, 33.5029840603395], [-82.823123919258, 33.5012399618935], [-82.8230478615979, 33.5002410542529], [-82.8230478615979, 33.4966575740781], [-82.8221922153914, 33.4837811939863], [-82.8218849996491, 33.4797110003597], [-82.82192601403, 33.4791820223475], [-82.8216598117703, 33.4743446988171], [-82.821405349593, 33.4689251997431], [-82.8214007412356, 33.4688270461124], [-82.8197219345984, 33.4685777397521], [-82.8199122920986, 33.4683921422785]], [[-82.75313867728032, 33.706515743344205], [-82.7531958, 33.706504300000006]]]}}, {"type": "Feature", "properties": {"id": "sertp-p93-b67656"}, "geometry": {"type": "MultiLineString", "coordinates": [[[-81.2094394717286, 32.2487605500316], [-81.2090863709399, 32.2489273136994], [-81.2074131060096, 32.2474156700592], [-81.2016992854067, 32.2430494528144], [-81.2020272827748, 32.2415135876568], [-81.203657766338, 32.2340429627707], [-81.2047606001645, 32.2289482719831], [-81.2058634339911, 32.2238090597043], [-81.2075319450368, 32.216103719986], [-81.2083448098762, 32.2123473302559], [-81.2074986696421, 32.2099019739482], [-81.2072136575587, 32.2091839349418], [-81.2081752582562, 32.2088599652825]], [[-81.2081752582562, 32.2088599652825], [-81.2071339473485, 32.208983116225], [-81.2045466879392, 32.2024649517821], [-81.204095096761, 32.2012341052227], [-81.2036007233175, 32.1999710611303], [-81.2021318619452, 32.1962663001521], [-81.2006439868317, 32.1925452962013], [-81.1987092744245, 32.1876293152644], [-81.1981198277829, 32.1861930913677], [-81.1966557211935, 32.1825481171023], [-81.1947875577792, 32.1771890163142], [-81.192914642277, 32.1718296001271], [-81.1919401552467, 32.1690974639109], [-81.1907327422497, 32.1654920453525]], [[-81.1907327422497, 32.1654920453525], [-81.1902027155708, 32.1640152308731], [-81.1891973309863, 32.1622707888527], [-81.1872661830942, 32.1591540496905], [-81.1841644630132, 32.1538670202227], [-81.1818054915686, 32.1532884958121], [-81.1735342374204, 32.1526797848115], [-81.1653105194221, 32.1520710697458], [-81.1645796528019, 32.1532935267726], [-81.1638250203525, 32.1533891088846], [-81.1610310954272, 32.152564078716], [-81.1574611455724, 32.1523467529208], [-81.1557973884111, 32.1513687789093], [-81.1544473669644, 32.1489056852691], [-81.1537390812955, 32.1476539903099], [-81.1529197135518, 32.1462782538223], [-81.1517966820044, 32.146424172671], [-81.1494121939142, 32.1468601891029], [-81.1470554404102, 32.1472828003623], [-81.1458450000907, 32.1481500000835]], [[-81.2094724, 32.24870119999999], [-81.2094394717286, 32.24876055003156]], [[-81.1458450000907, 32.1481500000835], [-81.1459835, 32.14813529999999]]]}}, {"type": "Feature", "properties": {"id": "sertp-p97-b8182e"}, "geometry": {"type": "MultiLineString", "coordinates": [[[-85.0921750800208, 32.6611644623093], [-85.0923942689501, 32.6611601561034], [-85.0968175599344, 32.6594147318408], [-85.1032230276105, 32.6567383423407], [-85.1073051779758, 32.6556727657814], [-85.1124271758931, 32.6543820511924], [-85.1153149846471, 32.6601651076733], [-85.1200151013676, 32.6694942499018], [-85.124014063246, 32.6774520126304], [-85.1251280002494, 32.6801710002901], [-85.1261738476493, 32.6831043243588], [-85.127816000328, 32.6856120002948], [-85.1285775129741, 32.6866193181281], [-85.1325705333952, 32.692305274855], [-85.1338004213423, 32.6965633042842], [-85.1346260000378, 32.6986859997925], [-85.1387109998592, 32.7069889996512], [-85.1411685973387, 32.7119607928183], [-85.1441871289328, 32.7179400917923], [-85.1456250918525, 32.7208296092897], [-85.1470689962295, 32.7237940170002], [-85.1505925984056, 32.7338512721129], [-85.1521434579969, 32.7383296850365]], [[-85.1521434579969, 32.7383296850365], [-85.1531298288402, 32.7410935923008], [-85.1545321403212, 32.7450318879855], [-85.1559403923611, 32.7492448721304], [-85.1583647252258, 32.7560961681201], [-85.1609910856045, 32.7635415449516], [-85.1636357338858, 32.769753953965], [-85.1650138160069, 32.7728199108196], [-85.1670578605707, 32.7775011973418], [-85.1681630722378, 32.7802439070704], [-85.1698387141103, 32.7840206143744], [-85.1716629058898, 32.7882617251346], [-85.1722630469749, 32.7898951733008], [-85.1739729416092, 32.7940379998528], [-85.1758936052637, 32.7991458179136], [-85.1773449261317, 32.8030652233766], [-85.1777762270625, 32.8039805458204]], [[-85.1777762270625, 32.8039805458204], [-85.1783724461031, 32.8059268238445], [-85.1806125380962, 32.8117788056226], [-85.182837941736, 32.8175479998792], [-85.1839885812071, 32.8207720643067], [-85.1846659684235, 32.8223599742332], [-85.1861158142577, 32.8261648520379], [-85.1892739422504, 32.8342480002279], [-85.1903819422881, 32.8372449999025], [-85.1907866926124, 32.8383391327306], [-85.1906198449214, 32.8414775861539], [-85.1903529419758, 32.8445789996636], [-85.1901579419821, 32.8469240002018], [-85.1901293899291, 32.8473045083231], [-85.1890629423632, 32.8482780003171], [-85.1884764565687, 32.8487599112292], [-85.1878687022615, 32.8491154913125]], [[-85.1878687022615, 32.8491154913125], [-85.1875455207617, 32.8495295571386], [-85.186655575081, 32.8503005600547], [-85.1802746152425, 32.8556585699233], [-85.1734209996307, 32.8615820001669], [-85.1710289998281, 32.8636329998108], [-85.1645826129925, 32.868970686832], [-85.1629129125772, 32.8704304732878]], [[-85.1629129125772, 32.8704304732878], [-85.1603964790398, 32.8724791240649], [-85.1590327924211, 32.8736294407493], [-85.1547028606493, 32.8772749273038], [-85.1541086619198, 32.8792829988734], [-85.1518660151181, 32.8798608802454], [-85.1488987216311, 32.8829676727443], [-85.1510330864069, 32.8833628778271], [-85.1538519683274, 32.8834307422767], [-85.1611396076637, 32.8836057487308], [-85.1653703079359, 32.8837055482573], [-85.1659359851551, 32.8834420791652]], [[-85.1659359851551, 32.8834420791652], [-85.1652797281108, 32.8842032617615], [-85.1669589353967, 32.8850026406869], [-85.1685133604014, 32.8847691157676], [-85.1692977037305, 32.88521520937], [-85.1700963069164, 32.8852241908897], [-85.1709804764297, 32.8873019391025], [-85.1716400365793, 32.8888677032109], [-85.172381597643, 32.8906070752469], [-85.1742747171542, 32.8906190501291], [-85.1748914959367, 32.8917806082723], [-85.1756009700767, 32.8931457193523], [-85.1779397384105, 32.8948251358559], [-85.1818721503977, 32.900671412674], [-85.1840469186999, 32.9038353657036], [-85.1848811751211, 32.9062838346306], [-85.1859329082827, 32.909190181159], [-85.1867671638056, 32.9114140246641], [-85.1866388170094, 32.9135240823116], [-85.1879044605997, 32.9153138486516], [-85.1891094966545, 32.9169958377874], [-85.1902646214137, 32.9185820262078]]]}}]}